NORAD_CAT_ID,OBJECT_NAME,OBJECT_TYPE,EPOCH,MEAN_MOTION,ECCENTRICITY,INCLINATION,RA_OF_ASC_NODE,ARG_OF_PERICENTER,MEAN_ANOMALY,BSTAR,MEAN_MOTION_DOT,MEAN_MOTION_DDOT,TLE_LINE0,TLE_LINE1,TLE_LINE2,SEMIMAJOR_AXIS,PERIOD,APOGEE,PERIGEE,DECAYED
55944.0,STARLINK-5926,PAYLOAD,2024-01-02 13:50:38,14.98337659,0.0003117,69.9995,134.1305,268.9688,91.1114,0.0001063,1.176e-05,0.0,0 STARLINK-5926,1 55944U 23037AG  24002.57683114  .00001176  00000-0  10630-3 0  9993,2 55944  69.9995 134.1305 0003117 268.9688  91.1114 14.98337659 44585,6950.169,96.107,574.201,569.868,0.0
55944.0,STARLINK-5926,PAYLOAD,2024-01-02 18:39:02,14.98341257,0.0003089,69.9997,133.6258,268.7833,91.2972,0.00014054,1.585e-05,0.0,0 STARLINK-5926,1 55944U 23037AG  24002.77710668  .00001585  00000-0  14054-3 0  9998,2 55944  69.9997 133.6258 0003089 268.7833  91.2972 14.98341257 44612,6950.158,96.106,574.17,569.876,0.0
55944.0,STARLINK-5926,PAYLOAD,2024-01-03 12:16:32,14.98322556,0.0003398,69.9991,131.7729,278.9145,81.163,-0.00012759,-1.615e-05,0.0,0 STARLINK-5926,1 55944U 23037AG  24003.51148687 -.00001615  00000-0 -12759-3 0  9993,2 55944  69.9991 131.7729 0003398 278.9145  81.1630 14.98322556 45060,6950.216,96.107,574.443,569.719,0.0
55944.0,STARLINK-5926,PAYLOAD,2024-01-03 13:52:40,14.98323211,0.000338,69.9991,131.6044,278.0956,81.982,-0.0001314,-1.66e-05,0.0,0 STARLINK-5926,1 55944U 23037AG  24003.57824663 -.00001660  00000-0 -13140-3 0  9999,2 55944  69.9991 131.6044 0003380 278.0956  81.9820 14.98323211 44732,6950.214,96.107,574.428,569.73,0.0
55944.0,STARLINK-5926,PAYLOAD,2024-01-03 18:41:04,14.98324499,0.0003176,69.9994,131.0999,274.6003,85.4793,-9.2406e-05,-1.195e-05,0.0,0 STARLINK-5926,1 55944U 23037AG  24003.77852523 -.00001195  00000-0 -92406-4 0  9993,2 55944  69.9994 131.0999 0003176 274.6003  85.4793 14.98324499 44766,6950.21,96.107,574.282,569.868,0.0
55944.0,STARLINK-5926,PAYLOAD,2024-01-04 12:18:32,14.98335047,0.0002613,70.0004,129.2505,242.8954,117.1938,-4.5827e-05,-6.4e-06,0.0,0 STARLINK-5926,1 55944U 23037AG  24004.51287630 -.00000640  00000-0 -45827-4 0  9996,2 55944  70.0004 129.2505 0002613 242.8954 117.1938 14.98335047 45216,6950.177,96.107,573.858,570.226,0.0
55944.0,STARLINK-5926,PAYLOAD,2024-01-04 18:43:04,14.98339568,0.000303,69.9999,128.5758,275.4749,84.6064,-1.3883e-05,-2.59e-06,0.0,0 STARLINK-5926,1 55944U 23037AG  24004.77991295 -.00000259  00000-0 -13883-4 0  9996,2 55944  69.9999 128.5758 0003030 275.4749  84.6064 14.98339568 44912,6950.163,96.106,574.134,569.922,0.0
55944.0,STARLINK-5926,PAYLOAD,2024-01-05 12:20:33,14.98321988,0.0002759,70.0004,126.7246,267.696,92.3883,9.8084e-05,1.077e-05,0.0,0 STARLINK-5926,1 55944U 23037AG  24005.51428172  .00001077  00000-0  98084-4 0  9991,2 55944  70.0004 126.7246 0002759 267.6960  92.3883 14.98321988 45361,6950.218,96.108,574.0,570.165,0.0
55944.0,STARLINK-5926,PAYLOAD,2024-01-05 13:56:42,14.98320752,0.0002884,70.0003,126.5566,267.6757,92.4072,0.00010794,1.195e-05,0.0,0 STARLINK-5926,1 55944U 23037AG  24005.58104215  .00001195  00000-0  10794-3 0  9999,2 55944  70.0003 126.5566 0002884 267.6757  92.4072 14.98320752 45039,6950.221,96.108,574.091,570.082,0.0
55944.0,STARLINK-5926,PAYLOAD,2024-01-05 17:08:58,14.98322147,0.0002739,70.0004,126.2198,264.507,95.5777,0.00010709,1.185e-05,0.0,0 STARLINK-5926,1 55944U 23037AG  24005.71456186  .00001185  00000-0  10709-3 0  9996,2 55944  70.0004 126.2198 0002739 264.5070  95.5777 14.98322147 45059,6950.217,96.108,573.986,570.179,0.0
55944.0,STARLINK-5926,PAYLOAD,2024-01-06 12:22:35,14.98327315,0.000274,70.0004,124.2006,257.6766,102.4086,-1.6237e-05,-2.87e-06,0.0,0 STARLINK-5926,1 55944U 23037AG  24006.51568307 -.00000287  00000-0 -16237-4 0  9991,2 55944  70.0004 124.2006 0002740 257.6766 102.4086 14.98327315 45516,6950.201,96.107,573.971,570.162,0.0
55944.0,STARLINK-5926,PAYLOAD,2024-01-06 17:10:59,14.98328016,0.0002698,69.9999,123.6946,253.549,106.5373,-7.3684e-06,-1.81e-06,0.0,0 STARLINK-5926,1 55944U 23037AG  24006.71596247 -.00000181  00000-0 -73684-5 0  9990,2 55944  69.9999 123.6946 0002698 253.5490 106.5373 14.98328016 45202,6950.199,96.107,573.939,570.189,0.0
55944.0,STARLINK-5926,PAYLOAD,2024-01-07 12:24:35,14.98329705,0.0003022,69.9998,121.675,267.5192,92.5621,3.7846e-05,3.59e-06,0.0,0 STARLINK-5926,1 55944U 23037AG  24007.51707975  .00000359  00000-0  37846-4 0  9995,2 55944  69.9998 121.6750 0003022 267.5192  92.5621 14.98329705 45664,6950.194,96.107,574.159,569.958,0.0
55944.0,STARLINK-5926,PAYLOAD,2024-01-07 14:00:43,14.98330789,0.0002969,69.9999,121.5063,266.5208,93.5612,3.5309e-05,3.28e-06,0.0,0 STARLINK-5926,1 55944U 23037AG  24007.58383941  .00000328  00000-0  35309-4 0  9993,2 55944  69.9999 121.5063 0002969 266.5208  93.5612 14.98330789 45336,6950.19,96.107,574.119,569.992,0.0
55944.0,STARLINK-5926,PAYLOAD,2024-01-07 17:12:59,14.98332558,0.0002949,70.0,121.17,268.6035,91.4786,5.6327e-05,5.79e-06,0.0,0 STARLINK-5926,1 55944U 23037AG  24007.71735760  .00000579  00000-0  56327-4 0  9999,2 55944  70.0000 121.1700 0002949 268.6035  91.4786 14.98332558 45352,6950.185,96.107,574.1,570.0,0.0
55944.0,STARLINK-5926,PAYLOAD,2024-01-08 14:02:44,14.9832824,0.0002863,70.0003,118.9813,269.0576,91.0255,3.8791e-05,3.7e-06,0.0,0 STARLINK-5926,1 55944U 23037AG  24008.58524054  .00000370  00000-0  38791-4 0  9991,2 55944  70.0003 118.9813 0002863 269.0576  91.0255 14.98328240 45488,6950.198,96.107,574.053,570.073,0.0
55944.0,STARLINK-5926,PAYLOAD,2024-01-08 17:15:00,14.98331884,0.0002755,70.0004,118.6448,266.513,93.5714,5.7568e-05,5.94e-06,0.0,0 STARLINK-5926,1 55944U 23037AG  24008.71875739  .00000594  00000-0  57568-4 0  9996,2 55944  70.0004 118.6448 0002755 266.5130  93.5714 14.98331884 45843,6950.187,96.107,573.967,570.137,0.0
55944.0,STARLINK-5926,PAYLOAD,2024-01-09 14:04:45,14.98330592,0.0002504,70.0016,116.4582,248.2288,111.8605,2.096e-06,-6.8e-07,0.0,0 STARLINK-5926,1 55944U 23037AG  24009.58663735 -.00000068  00000-0  20960-5 0  9997,2 55944  70.0016 116.4582 0002504 248.2288 111.8605 14.98330592 45639,6950.191,96.107,573.796,570.316,0.0
55944.0,STARLINK-5926,PAYLOAD,2024-01-09 17:17:01,14.98333464,0.0002546,70.0011,116.122,270.4123,89.6745,2.3641e-05,1.89e-06,0.0,0 STARLINK-5926,1 55944U 23037AG  24009.72015612  .00000189  00000-0  23641-4 0  9999,2 55944  70.0011 116.1220 0002546 270.4123  89.6745 14.98333464 45998,6950.182,96.107,573.817,570.278,0.0
55944.0,STARLINK-5926,PAYLOAD,2024-01-10 10:54:30,14.9832862,0.0002612,70.0008,114.269,259.5401,100.5464,-2.8741e-06,-1.27e-06,0.0,0 STARLINK-5926,1 55944U 23037AG  24010.45451711 -.00000127  00000-0 -28741-5 0  9996,2 55944  70.0008 114.2690 0002612 259.5401 100.5464 14.98328620 45769,6950.197,96.107,573.878,570.247,0.0
55944.0,STARLINK-5926,PAYLOAD,2024-01-10 17:19:02,14.98330034,0.000259,70.001,113.5954,265.2173,94.869,8.68e-06,1.1e-07,0.0,0 STARLINK-5926,1 55944U 23037AG  24010.72155657  .00000011  00000-0  86800-5 0  9996,2 55944  70.0010 113.5954 0002590 265.2173  94.8690 14.98330034 46143,6950.193,96.107,573.858,570.258,0.0
55944.0,STARLINK-5926,PAYLOAD,2024-01-11 14:08:47,14.98328523,0.0002539,70.0009,111.4075,258.8512,101.2362,-2.6079e-05,-4.04e-06,0.0,0 STARLINK-5926,1 55944U 23037AG  24011.58943813 -.00000404  00000-0 -26079-4 0  9999,2 55944  70.0009 111.4075 0002539 258.8512 101.2362 14.98328523 45935,6950.197,96.107,573.827,570.298,0.0
55944.0,STARLINK-5926,PAYLOAD,2024-01-11 17:21:03,14.98328619,0.0002517,70.0009,111.0712,258.4782,101.6094,3.5434e-06,-5.1e-07,0.0,0 STARLINK-5926,1 55944U 23037AG  24011.72295732 -.00000051  00000-0  35434-5 0  9998,2 55944  70.0009 111.0712 0002517 258.4782 101.6094 14.98328619 46292,6950.197,96.107,573.812,570.313,0.0
55944.0,STARLINK-5926,PAYLOAD,2024-01-12 14:10:48,14.98326011,0.0002851,70.0004,108.8828,267.692,92.3913,3.844e-05,3.66e-06,0.0,0 STARLINK-5926,1 55944U 23037AG  24012.59083764  .00000366  00000-0  38440-4 0  9991,2 55944  70.0004 108.8828 0002851 267.6920  92.3913 14.98326011 46083,6950.205,96.107,574.052,570.089,0.0
55944.0,STARLINK-5926,PAYLOAD,2024-01-12 15:46:56,14.98328172,0.0003101,70.0,108.7138,273.708,86.3724,5.3063e-05,5.4e-06,0.0,0 STARLINK-5926,1 55944U 23037AG  24012.65759616  .00000540  00000-0  53063-4 0  9996,2 55944  70.0000 108.7138 0003101 273.7080  86.3724 14.98328172 46090,6950.199,96.107,574.219,569.908,0.0
55944.0,STARLINK-5926,PAYLOAD,2024-01-13 11:00:33,14.98328587,0.0002905,70.0003,106.6951,268.0615,92.0212,-1.0823e-05,-2.22e-06,0.0,0 STARLINK-5926,1 55944U 23037AG  24013.45871847 -.00000222  00000-0 -10823-4 0  9992,2 55944  70.0003 106.6951 0002905 268.0615  92.0212 14.98328587 46552,6950.197,96.107,574.081,570.043,0.0
55944.0,STARLINK-5926,PAYLOAD,2024-01-13 14:12:49,14.98331353,0.0002848,70.0003,106.3584,268.2136,91.8697,2.2535e-05,1.76e-06,0.0,0 STARLINK-5926,1 55944U 23037AG  24013.59223580  .00000176  00000-0  22535-4 0  9991,2 55944  70.0003 106.3584 0002848 268.2136  91.8697 14.98331353 46231,6950.189,96.107,574.033,570.074,0.0
55944.0,STARLINK-5926,PAYLOAD,2024-01-14 11:02:34,14.98330092,0.0002854,70.0001,104.169,268.9766,91.1066,1.3849e-05,7.2e-07,0.0,0 STARLINK-5926,1 55944U 23037AG  24014.46011601  .00000072  00000-0  13849-4 0  9990,2 55944  70.0001 104.1690 0002854 268.9766  91.1066 14.98330092 46700,6950.193,96.107,574.041,570.074,0.0
55944.0,STARLINK-5926,PAYLOAD,2024-01-14 14:14:49,14.98333318,0.0002954,70.0001,103.832,270.2951,89.787,6.3469e-05,6.64e-06,0.0,0 STARLINK-5926,1 55944U 23037AG  24014.59363245  .00000664  00000-0  63469-4 0  9998,2 55944  70.0001 103.8320 0002954 270.2951  89.7870 14.98333318 46383,6950.183,96.107,574.101,569.995,0.0
55944.0,STARLINK-5926,PAYLOAD,2024-01-14 15:50:57,14.98334982,0.0002947,70.0002,103.6638,270.0267,90.0554,8.0804e-05,8.71e-06,0.0,0 STARLINK-5926,1 55944U 23037AG  24014.66039074  .00000871  00000-0  80804-4 0  9998,2 55944  70.0002 103.6638 0002947 270.0267  90.0554 14.98334982 46397,6950.177,96.107,574.091,569.994,0.0
